$$SOE
2461302.500000000, A.D. 2026-Sep-19 00:00:00.0000, -4.082012478256287E+07, 3.330728062398516E+08, 6.591578973749921E+06,
2461309.500000000, A.D. 2026-Sep-26 00:00:00.0000, -5.250417358210146E+07, 3.306662225470640E+08, 7.346889256429508E+06,
2461316.500000000, A.D. 2026-Oct-03 00:00:00.0000, -6.412045516914304E+07, 3.278323215357971E+08, 8.092703771551356E+06,
2461323.500000000, A.D. 2026-Oct-10 00:00:00.0000, -7.565340276259691E+07, 3.245719183586996E+08, 8.827988201077178E+06,
2461330.500000000, A.D. 2026-Oct-17 00:00:00.0000, -8.708734533656281E+07, 3.208863882176400E+08, 9.551707730191186E+06,
2461337.500000000, A.D. 2026-Oct-24 00:00:00.0000, -9.840652619962089E+07, 3.167776800232608E+08, 1.026282844691592E+07,
2461344.500000000, A.D. 2026-Oct-31 00:00:00.0000, -1.095951226922170E+08, 3.122483294960749E+08, 1.096031879621176E+07,
2461351.500000000, A.D. 2026-Nov-07 00:00:00.0000, -1.206372666877007E+08, 3.073014716913579E+08, 1.164315106429367E+07,
2461358.500000000, A.D. 2026-Nov-14 00:00:00.0000, -1.315170657168747E+08, 3.019408537388070E+08, 1.231030294769171E+07,
2461365.500000000, A.D. 2026-Nov-21 00:00:00.0000, -1.422186265434345E+08, 2.961708483822456E+08, 1.296075942877640E+07,
2461372.500000000, A.D. 2026-Nov-28 00:00:00.0000, -1.527260821895806E+08, 2.899964652089128E+08, 1.359351480255574E+07,
2461379.500000000, A.D. 2026-Dec-05 00:00:00.0000, -1.630236187855650E+08, 2.834233587917007E+08, 1.420757446835229E+07,
2461386.500000000, A.D. 2026-Dec-12 00:00:00.0000, -1.730955020747284E+08, 2.764578367420608E+08, 1.480195672409584E+07,
2461393.500000000, A.D. 2026-Dec-19 00:00:00.0000, -1.829261054381028E+08, 2.691068675730440E+08, 1.537569473382828E+07,
2461400.500000000, A.D. 2026-Dec-26 00:00:00.0000, -1.924999395375560E+08, 2.613780873813821E+08, 1.592783860657778E+07,
2461407.500000000, A.D. 2027-Jan-02 00:00:00.0000, -2.018016832501478E+08, 2.532798050223565E+08, 1.645745754096486E+07,
2461414.500000000, A.D. 2027-Jan-09 00:00:00.0000, -2.108162157230293E+08, 2.448210056594731E+08, 1.696364202127558E+07,
2461421.500000000, A.D. 2027-Jan-16 00:00:00.0000, -2.195286494579332E+08, 2.360113525674989E+08, 1.744550605720268E+07,
2461428.500000000, A.D. 2027-Jan-23 00:00:00.0000, -2.279243643132197E+08, 2.268611870326557E+08, 1.790218945408617E+07,
2461435.500000000, A.D. 2027-Jan-30 00:00:00.0000, -2.359890421490953E+08, 2.173815261943387E+08, 1.833286008557598E+07,
2461442.500000000, A.D. 2027-Feb-06 00:00:00.0000, -2.437087015814526E+08, 2.075840590603781E+08, 1.873671614877923E+07,
2461449.500000000, A.D. 2027-Feb-13 00:00:00.0000, -2.510697331774807E+08, 1.974811418039894E+08, 1.911298853316833E+07,
2461456.500000000, A.D. 2027-Feb-20 00:00:00.0000, -2.580589373209020E+08, 1.870857914427964E+08, 1.946094344338243E+07,
2461463.500000000, A.D. 2027-Feb-27 00:00:00.0000, -2.646635632008612E+08, 1.764116745872287E+08, 1.977988487256127E+07,
2461470.500000000, A.D. 2027-Mar-06 00:00:00.0000, -2.708713457373835E+08, 1.654730930819359E+08, 2.006915679382118E+07,
2461477.500000000, A.D. 2027-Mar-13 00:00:00.0000, -2.766705418785232E+08, 1.542849685013783E+08, 2.032814537181919E+07,
2461484.500000000, A.D. 2027-Mar-20 00:00:00.0000, -2.820499672302603E+08, 1.428628246074324E+08, 2.055628121784877E+07,
2461491.500000000, A.D. 2027-Mar-27 00:00:00.0000, -2.869990326272323E+08, 1.312227671812004E+08, 2.075304161286633E+07,
2461498.500000000, A.D. 2027-Apr-03 00:00:00.0000, -2.915077802361707E+08, 1.193814611539162E+08, 2.091795266284516E+07,
2461505.500000000, A.D. 2027-Apr-10 00:00:00.0000, -2.955669189166613E+08, 1.073561050475880E+08, 2.105059136872751E+07,
2461512.500000000, A.D. 2027-Apr-17 00:00:00.0000, -2.991678585965390E+08, 9.516440271609522E+07, 2.115058759317987E+07,
2461519.500000000, A.D. 2027-Apr-24 00:00:00.0000, -3.023027433577308E+08, 8.282453234862034E+07, 2.121762589695918E+07,
2461526.500000000, A.D. 2027-May-01 00:00:00.0000, -3.049644827055653E+08, 7.035511280773717E+07, 2.125144720488836E+07,
2461533.500000000, A.D. 2027-May-08 00:00:00.0000, -3.071467804861206E+08, 5.777516811627647E+07, 2.125185031984562E+07,
2461540.500000000, A.D. 2027-May-15 00:00:00.0000, -3.088441627233571E+08, 4.510409113308415E+07, 2.121869348576143E+07,
2461547.500000000, A.D. 2027-May-22 00:00:00.0000, -3.100520057252236E+08, 3.236160393546625E+07, 2.115189591780990E+07,
2461554.500000000, A.D. 2027-May-29 00:00:00.0000, -3.107665608969616E+08, 1.956771357781136E+07, 2.105143885989881E+07,
2461561.500000000, A.D. 2027-Jun-05 00:00:00.0000, -3.109849751674539E+08, 6.742666519367301E+06, 2.091736633286086E+07,
2461568.500000000, A.D. 2027-Jun-12 00:00:00.0000, -3.107053088362864E+08, -6.093097673598144E+06, 2.074978578155442E+07,
2461575.500000000, A.D. 2027-Jun-19 00:00:00.0000, -3.099265510003853E+08, -1.891899409339102E+07, 2.054886856507820E+07,
2461582.500000000, A.D. 2027-Jun-26 00:00:00.0000, -3.086486321280805E+08, -3.171434176675128E+07, 2.031485023546024E+07,
2461589.500000000, A.D. 2027-Jul-03 00:00:00.0000, -3.068724335094772E+08, -4.445841419518183E+07, 2.004803058723631E+07,
2461596.500000000, A.D. 2027-Jul-10 00:00:00.0000, -3.045997934266647E+08, -5.713049089991218E+07, 1.974877347050161E+07,
2461603.500000000, A.D. 2027-Jul-17 00:00:00.0000, -3.018335099115918E+08, -6.970990974685088E+07, 1.941750635782716E+07,
2461610.500000000, A.D. 2027-Jul-24 00:00:00.0000, -2.985773398648174E+08, -8.217611984002264E+07, 1.905471964426486E+07,
2461617.500000000, A.D. 2027-Jul-31 00:00:00.0000, -2.948359940794080E+08, -9.450873446525976E+07, 1.866096566250231E+07,
2461624.500000000, A.D. 2027-Aug-07 00:00:00.0000, -2.906151283522935E+08, -1.066875826442958E+08, 1.823685752798804E+07,
2461631.500000000, A.D. 2027-Aug-14 00:00:00.0000, -2.859213329927157E+08, -1.186927592638649E+08, 1.778306800824821E+07,
2461638.500000000, A.D. 2027-Aug-21 00:00:00.0000, -2.807621201504499E+08, -1.305046768596585E+08, 1.730032809055136E+07,
2461645.500000000, A.D. 2027-Aug-28 00:00:00.0000, -2.751459056063228E+08, -1.421041175706548E+08, 1.678942503983054E+07,
2461652.500000000, A.D. 2027-Sep-04 00:00:00.0000, -2.690819863029755E+08, -1.534722824823688E+08, 1.625120026979309E+07,
2461659.500000000, A.D. 2027-Sep-11 00:00:00.0000, -2.625805151284786E+08, -1.645908387512519E+08, 1.568654711212195E+07,
2461666.500000000, A.D. 2027-Sep-18 00:00:00.0000, -2.556524729640941E+08, -1.754419649090445E+08, 1.509640843038637E+07,
2461673.500000000, A.D. 2027-Sep-25 00:00:00.0000, -2.483096379419360E+08, -1.860083941879780E+08, 1.448177406514879E+07,
2461680.500000000, A.D. 2027-Oct-02 00:00:00.0000, -2.405645520318684E+08, -1.962734556117293E+08, 1.384367812099978E+07,
2461687.500000000, A.D. 2027-Oct-09 00:00:00.0000, -2.324304851372562E+08, -2.062211126442853E+08, 1.318319610881274E+07,
2461694.500000000, A.D. 2027-Oct-16 00:00:00.0000, -2.239213968460219E+08, -2.158359992684194E+08, 1.250144194879037E+07,
2461701.500000000, A.D. 2027-Oct-23 00:00:00.0000, -2.150518958046385E+08, -2.251034533540588E+08, 1.179956482680815E+07,
2461708.500000000, A.D. 2027-Oct-30 00:00:00.0000, -2.058371965929813E+08, -2.340095465930471E+08, 1.107874593793114E+07,
2461715.500000000, A.D. 2027-Nov-06 00:00:00.0000, -1.962930755338203E+08, -2.425411097789963E+08, 1.034019533531497E+07,
2461722.500000000, A.D. 2027-Nov-13 00:00:00.0000, -1.864358276959839E+08, -2.506857554323799E+08, 9.585148915952191E+06,
2461729.500000000, A.D. 2027-Nov-20 00:00:00.0000, -1.762822224606824E+08, -2.584318999053599E+08, 8.814865117019773E+06,
2461736.500000000, A.D. 2027-Nov-27 00:00:00.0000, -1.658494563020980E+08, -2.657687819767931E+08, 8.030621435119942E+06,
2461743.500000000, A.D. 2027-Dec-04 00:00:00.0000, -1.551551050684098E+08, -2.726864770216153E+08, 7.233711046571583E+06,
2461750.500000000, A.D. 2027-Dec-11 00:00:00.0000, -1.442170765687266E+08, -2.791759077396600E+08, 6.425439517473653E+06,
2461757.500000000, A.D. 2027-Dec-18 00:00:00.0000, -1.330535634362039E+08, -2.852288518270328E+08, 5.607121566442445E+06,
2461764.500000000, A.D. 2027-Dec-25 00:00:00.0000, -1.216829963493815E+08, -2.908379466605896E+08, 4.780077880518794E+06,
2461771.500000000, A.D. 2028-Jan-01 00:00:00.0000, -1.101239977943624E+08, -2.959966910731344E+08, 3.945631995556667E+06,
$$EOE